{"fetched_at":"2026-07-06T18:35:46.309Z","source":"https://celestrak.org/NORAD/elements/gp.php?NAME=O3B&FORMAT=JSON","constellation":"o3b-mpower","records":[{"OBJECT_NAME":"O3B MPOWER F1","OBJECT_ID":"2022-174A","EPOCH":"2026-07-06T01:34:24.841056","CLASSIFICATION_TYPE":"U","MEAN_MOTION":5.0011486,"ECCENTRICITY":0.00065722,"INCLINATION":0.0501,"RA_OF_ASC_NODE":339.9396,"ARG_OF_PERICENTER":136.0818,"MEAN_ANOMALY":122.4879,"EPHEMERIS_TYPE":0,"NORAD_CAT_ID":54755,"ELEMENT_SET_NO":999,"REV_AT_EPOCH":6630,"BSTAR":0,"MEAN_MOTION_DOT":-1e-7,"MEAN_MOTION_DDOT":0},{"OBJECT_NAME":"O3B MPOWER F2","OBJECT_ID":"2022-174B","EPOCH":"2026-07-05T21:35:49.962048","CLASSIFICATION_TYPE":"U","MEAN_MOTION":5.00114983,"ECCENTRICITY":0.00058221,"INCLINATION":0.046,"RA_OF_ASC_NODE":340.02,"ARG_OF_PERICENTER":119.662,"MEAN_ANOMALY":260.3839,"EPHEMERIS_TYPE":0,"NORAD_CAT_ID":54756,"ELEMENT_SET_NO":999,"REV_AT_EPOCH":6638,"BSTAR":0,"MEAN_MOTION_DOT":-1e-7,"MEAN_MOTION_DDOT":0},{"OBJECT_NAME":"O3B MPOWER F4","OBJECT_ID":"2023-059A","EPOCH":"2026-07-05T23:08:20.257440","CLASSIFICATION_TYPE":"U","MEAN_MOTION":5.00115429,"ECCENTRICITY":0.00077187,"INCLINATION":0.063,"RA_OF_ASC_NODE":351.4697,"ARG_OF_PERICENTER":117.4326,"MEAN_ANOMALY":251.1817,"EPHEMERIS_TYPE":0,"NORAD_CAT_ID":56367,"ELEMENT_SET_NO":999,"REV_AT_EPOCH":5954,"BSTAR":0,"MEAN_MOTION_DOT":-1e-7,"MEAN_MOTION_DDOT":0},{"OBJECT_NAME":"O3B MPOWER F3","OBJECT_ID":"2023-059B","EPOCH":"2026-07-05T23:56:04.369920","CLASSIFICATION_TYPE":"U","MEAN_MOTION":5.00116488,"ECCENTRICITY":0.00066908,"INCLINATION":0.0638,"RA_OF_ASC_NODE":350.8151,"ARG_OF_PERICENTER":111.1761,"MEAN_ANOMALY":258.084,"EPHEMERIS_TYPE":0,"NORAD_CAT_ID":56368,"ELEMENT_SET_NO":999,"REV_AT_EPOCH":5567,"BSTAR":0,"MEAN_MOTION_DOT":-1e-7,"MEAN_MOTION_DDOT":0},{"OBJECT_NAME":"O3B MPOWER F5","OBJECT_ID":"2023-175A","EPOCH":"2026-07-05T21:33:39.161952","CLASSIFICATION_TYPE":"U","MEAN_MOTION":5.00115968,"ECCENTRICITY":0.00053929,"INCLINATION":0.0511,"RA_OF_ASC_NODE":9.94,"ARG_OF_PERICENTER":112.7669,"MEAN_ANOMALY":237.3453,"EPHEMERIS_TYPE":0,"NORAD_CAT_ID":58346,"ELEMENT_SET_NO":999,"REV_AT_EPOCH":5037,"BSTAR":0,"MEAN_MOTION_DOT":-1e-7,"MEAN_MOTION_DDOT":0},{"OBJECT_NAME":"O3B MPOWER F6","OBJECT_ID":"2023-175B","EPOCH":"2026-07-05T09:34:48.518688","CLASSIFICATION_TYPE":"U","MEAN_MOTION":5.00115858,"ECCENTRICITY":0.0004448,"INCLINATION":0.0533,"RA_OF_ASC_NODE":1.7692,"ARG_OF_PERICENTER":99.6619,"MEAN_ANOMALY":258.6189,"EPHEMERIS_TYPE":0,"NORAD_CAT_ID":58347,"ELEMENT_SET_NO":999,"REV_AT_EPOCH":4926,"BSTAR":0,"MEAN_MOTION_DOT":-1.1e-7,"MEAN_MOTION_DDOT":0},{"OBJECT_NAME":"O3B MPOWER F7","OBJECT_ID":"2024-244A","EPOCH":"2026-07-05T20:46:05.891808","CLASSIFICATION_TYPE":"U","MEAN_MOTION":5.00115344,"ECCENTRICITY":0.00059654,"INCLINATION":0.0665,"RA_OF_ASC_NODE":344.5004,"ARG_OF_PERICENTER":115.846,"MEAN_ANOMALY":259.7211,"EPHEMERIS_TYPE":0,"NORAD_CAT_ID":62362,"ELEMENT_SET_NO":999,"REV_AT_EPOCH":2746,"BSTAR":0,"MEAN_MOTION_DOT":-1.1e-7,"MEAN_MOTION_DDOT":0},{"OBJECT_NAME":"O3B MPOWER F8","OBJECT_ID":"2024-244B","EPOCH":"2026-07-05T15:10:39.385920","CLASSIFICATION_TYPE":"U","MEAN_MOTION":5.00115087,"ECCENTRICITY":0.00058355,"INCLINATION":0.0142,"RA_OF_ASC_NODE":352.3003,"ARG_OF_PERICENTER":100.9155,"MEAN_ANOMALY":266.851,"EPHEMERIS_TYPE":0,"NORAD_CAT_ID":62363,"ELEMENT_SET_NO":999,"REV_AT_EPOCH":2179,"BSTAR":0,"MEAN_MOTION_DOT":-1.1e-7,"MEAN_MOTION_DDOT":0},{"OBJECT_NAME":"O3B MPOWER F9","OBJECT_ID":"2025-153A","EPOCH":"2026-07-05T23:10:25.783680","CLASSIFICATION_TYPE":"U","MEAN_MOTION":5.00115725,"ECCENTRICITY":0.00066204,"INCLINATION":0.0603,"RA_OF_ASC_NODE":6.9325,"ARG_OF_PERICENTER":116.8954,"MEAN_ANOMALY":236.2353,"EPHEMERIS_TYPE":0,"NORAD_CAT_ID":64866,"ELEMENT_SET_NO":999,"REV_AT_EPOCH":2050,"BSTAR":0,"MEAN_MOTION_DOT":-1e-7,"MEAN_MOTION_DDOT":0},{"OBJECT_NAME":"O3B MPOWER F10","OBJECT_ID":"2025-153B","EPOCH":"2026-07-05T17:33:40.784256","CLASSIFICATION_TYPE":"U","MEAN_MOTION":5.00114939,"ECCENTRICITY":0.00021476,"INCLINATION":0.0576,"RA_OF_ASC_NODE":3.3762,"ARG_OF_PERICENTER":246.3073,"MEAN_ANOMALY":110.2934,"EPHEMERIS_TYPE":0,"NORAD_CAT_ID":64867,"ELEMENT_SET_NO":999,"REV_AT_EPOCH":2296,"BSTAR":0,"MEAN_MOTION_DOT":-1.1e-7,"MEAN_MOTION_DDOT":0}]}
