O3B MPOWER F1           
1 54755U 22174A   26187.06556529 -.00000010  00000+0  00000+0 0  9994
2 54755   0.0501 339.9396 0006572 136.0818 122.4879  5.00114860 66306
O3B MPOWER F2           
1 54756U 22174B   26186.89988382 -.00000010  00000+0  00000+0 0  9991
2 54756   0.0460 340.0200 0005822 119.6620 260.3839  5.00114983 66385
O3B MPOWER F4           
1 56367U 23059A   26186.96412335 -.00000010  00000+0  00000+0 0  9992
2 56367   0.0630 351.4697 0007718 117.4326 251.1817  5.00115429 59545
O3B MPOWER F3           
1 56368U 23059B   26186.99727280 -.00000010  00000+0  00000+0 0  9994
2 56368   0.0638 350.8151 0006690 111.1761 258.0840  5.00116488 55672
O3B MPOWER F5           
1 58346U 23175A   26186.89836993 -.00000010  00000+0  00000+0 0  9992
2 58346   0.0511   9.9400 0005392 112.7669 237.3453  5.00115968 50375
O3B MPOWER F6           
1 58347U 23175B   26186.39917267 -.00000011  00000+0  00000+0 0  9993
2 58347   0.0533   1.7692 0004448  99.6619 258.6189  5.00115858 49268
O3B MPOWER F7           
1 62362U 24244A   26186.86534597 -.00000011  00000+0  00000+0 0  9996
2 62362   0.0665 344.5004 0005965 115.8460 259.7211  5.00115344 27467
O3B MPOWER F8           
1 62363U 24244B   26186.63240030 -.00000011  00000+0  00000+0 0  9998
2 62363   0.0142 352.3003 0005835 100.9155 266.8510  5.00115087 21791
O3B MPOWER F9           
1 64866U 25153A   26186.96557620 -.00000010  00000+0  00000+0 0  9999
2 64866   0.0603   6.9325 0006620 116.8954 236.2353  5.00115725 20501
O3B MPOWER F10          
1 64867U 25153B   26186.73172204 -.00000011  00000+0  00000+0 0  9997
2 64867   0.0576   3.3762 0002147 246.3073 110.2934  5.00114939 22962
